IRIDIUM 126             
1 42809U 17039G   25024.88498644  .00000113  00000+0  33178-4 0  9997
2 42809  86.3977 206.0265 0001809  96.7042 263.4360 14.34219723397090
IRIDIUM 124             
1 42810U 17039H   25024.71868072  .00000202  00000+0  54008-4 0  9991
2 42810  86.4531 142.9478 0002434  97.3110 262.8367 14.43279660401778
IRIDIUM 128             
1 42811U 17039J   25024.59664252  .00000604  00000+0  20843-3 0  9997
2 42811  86.3943 237.6454 0002297  93.8439 266.3019 14.34218389397085
IRIDIUM 121             
1 42812U 17039K   25024.90401899  .00000136  00000+0  41583-4 0  9994
2 42812  86.3978 206.0425 0002142  90.7013 269.4428 14.34221093396976
IRIDIUM 133             
1 42955U 17061A   25024.83766273  .00000466  00000+0  15916-3 0  9995
2 42955  86.3945 237.6499 0002061  91.7148 268.4284 14.34218520381917
IRIDIUM 100             
1 42956U 17061B   25024.62201966  .00000031  00000+0  41052-5 0  9996
2 42956  86.3943 237.6711 0002071  94.5340 265.6092 14.34218084381886
IRIDIUM 122             
1 42957U 17061C   25024.31122697  .00000338  00000+0  11365-3 0  9998
2 42957  86.3943 237.7991 0001776  96.2459 263.8939 14.34221322381844
IRIDIUM 129             
1 42958U 17061D   25024.89474989  .00000337  00000+0  11320-3 0  9996
2 42958  86.3945 237.6172 0001654  82.7010 277.4374 14.34218429381944
